NORAD_CAT_ID,OBJECT_NAME,OBJECT_TYPE,EPOCH,MEAN_MOTION,ECCENTRICITY,INCLINATION,RA_OF_ASC_NODE,ARG_OF_PERICENTER,MEAN_ANOMALY,BSTAR,MEAN_MOTION_DOT,MEAN_MOTION_DDOT,TLE_LINE0,TLE_LINE1,TLE_LINE2,SEMIMAJOR_AXIS,PERIOD,APOGEE,PERIGEE,DECAYED
49454.0,STARLINK-3160,PAYLOAD,2022-01-07 12:00:02,15.66473695,0.0001347,53.2174,221.0882,44.6392,304.2542,-0.0067033999999999,-0.00657711,0.0,0 STARLINK-3160,1 49454U 21104AY  22007.50002315 -.00657711  00000-0 -67034-2 0  9992,2 49454  53.2174 221.0882 0001347  44.6392 304.2542 15.66473695  9939,6747.141,91.926,369.915,368.097,0.0
49454.0,STARLINK-3160,PAYLOAD,2022-01-07 14:00:01,15.66256889,0.0001508,53.217,220.6802,34.2568,64.8158,-0.0052557,-0.00519867,0.0,0 STARLINK-3160,1 49454U 21104AY  22007.58334491 -.00519867  00000-0 -52557-2 0  9996,2 49454  53.2170 220.6802 0001508  34.2568  64.8158 15.66256889  3661,6747.763000000001,91.939,370.646,368.611,0.0
49454.0,STARLINK-3160,PAYLOAD,2022-01-07 22:00:00,15.65892067,0.0001794,53.2174,219.051,37.1061,142.3353,-0.0068809,-0.00659363,0.0,0 STARLINK-3160,1 49454U 21104AY  22007.91667824 -.00659363  00000-0 -68809-2 0  9995,2 49454  53.2174 219.0510 0001794  37.1061 142.3353 15.65892067  3684,6748.811,91.96,371.887,369.466,0.0
49454.0,STARLINK-3160,PAYLOAD,2022-01-08 12:00:00,15.65075419,0.000157,53.2172,216.1963,43.9042,184.9288,-0.007111,-0.00659328,0.0,0 STARLINK-3160,1 49454U 21104AY  22008.50001157 -.00659328  00000-0 -71110-2 0  9992,2 49454  53.2172 216.1963 0001570  43.9042 184.9288 15.65075419 10094,6751.159000000002,92.008,374.084,371.964,0.0
49454.0,STARLINK-3160,PAYLOAD,2022-01-08 14:00:01,15.64958519,0.0001424,53.2175,215.7895,41.794,296.8115,-0.0071271999999999,-0.00657832,0.0,0 STARLINK-3160,1 49454U 21104AY  22008.58334491 -.00657832  00000-0 -71272-2 0  9997,2 49454  53.2175 215.7895 0001424  41.7940 296.8115 15.64958519  3675,6751.495,92.015,374.321,372.399,0.0
49454.0,STARLINK-3160,PAYLOAD,2022-01-08 22:00:00,15.64493631,0.0001684,53.2175,214.1636,33.6348,23.7094,-0.0073033,-0.00661423,0.0,0 STARLINK-3160,1 49454U 21104AY  22008.91667824 -.00661423  00000-0 -73033-2 0  9991,2 49454  53.2175 214.1636 0001684  33.6348  23.7094 15.64493631  3684,6752.831999999999,92.043,375.835,373.56,0.0
49454.0,STARLINK-3160,PAYLOAD,2022-01-09 12:00:02,15.6367585,0.0001529,53.2175,211.3147,40.6209,63.2371,-0.0075191999999999,-0.00659315,0.0,0 STARLINK-3160,1 49454U 21104AY  22009.50002315 -.00659315  00000-0 -75192-2 0  9990,2 49454  53.2175 211.3147 0001529  40.6209  63.2371 15.63675850 10243,6755.187,92.091,378.085,376.019,0.0
49454.0,STARLINK-3160,PAYLOAD,2022-01-09 14:00:01,15.63559199,0.0001556,53.2177,210.9088,46.9332,166.2113,-0.0075356,-0.00657831,0.0,0 STARLINK-3160,1 49454U 21104AY  22009.58334491 -.00657831  00000-0 -75356-2 0  9994,2 49454  53.2177 210.9088 0001556  46.9332 166.2113 15.63559199  3685,6755.523,92.098,378.439,376.337,0.0
49454.0,STARLINK-3160,PAYLOAD,2022-01-09 22:00:00,15.63093476,0.000166,53.2177,209.2861,38.4689,251.7331,-0.0077091,-0.006605,0.0,0 STARLINK-3160,1 49454U 21104AY  22009.91667824 -.00660500  00000-0 -77091-2 0  9995,2 49454  53.2177 209.2861 0001660  38.4689 251.7331 15.63093476  3685,6756.864000000001,92.125,379.851,377.608,0.0
49454.0,STARLINK-3160,PAYLOAD,2022-01-10 12:00:00,15.62274766,0.0001530999999999,53.2175,206.4434,39.0421,294.6654,-0.0079107,-0.00656591,0.0,0 STARLINK-3160,1 49454U 21104AY  22010.50001157 -.00656591  00000-0 -79107-2 0  9998,2 49454  53.2175 206.4434 0001531  39.0421 294.6654 15.62274766 10400,6759.225,92.173,382.125,380.055,0.0
49454.0,STARLINK-3160,PAYLOAD,2022-01-10 14:00:01,15.62158635,0.0001647,53.2176,206.0383,34.5522,48.0866,-0.0079525,-0.00657049,0.0,0 STARLINK-3160,1 49454U 21104AY  22010.58334491 -.00657049  00000-0 -79525-2 0  9999,2 49454  53.2176 206.0383 0001647  34.5522  48.0866 15.62158635  3684,6759.56,92.18,382.538,380.312,0.0
49454.0,STARLINK-3160,PAYLOAD,2022-01-10 22:00:00,15.61691117,0.0001791,53.2174,204.419,36.4222,121.5923,-0.0080781,-0.00655497,0.0,0 STARLINK-3160,1 49454U 21104AY  22010.91667824 -.00655497  00000-0 -80781-2 0  9996,2 49454  53.2174 204.4190 0001791  36.4222 121.5923 15.61691117  3696,6760.909000000002,92.208,383.985,381.56300000000016,0.0
49454.0,STARLINK-3160,PAYLOAD,2022-01-11 12:00:00,15.60876485,0.0001651,53.2174,201.5821,42.283,156.2921,-0.0083705,-0.00657832,0.0,0 STARLINK-3160,1 49454U 21104AY  22011.50001157 -.00657832  00000-0 -83705-2 0  9997,2 49454  53.2174 201.5821 0001651  42.2830 156.2921 15.60876485 10569,6763.261,92.256,386.24300000000005,384.009,0.0
49454.0,STARLINK-3160,PAYLOAD,2022-01-11 14:00:01,15.60760583,0.0001496,53.2177,201.178,43.1093,263.9767,-0.0084261,-0.00659102,0.0,0 STARLINK-3160,1 49454U 21104AY  22011.58334491 -.00659102  00000-0 -84261-2 0  9995,2 49454  53.2177 201.1780 0001496  43.1093 263.9767 15.60760583  3680,6763.596,92.263,386.473,384.449,0.0
49454.0,STARLINK-3160,PAYLOAD,2022-01-11 22:00:00,15.60292938,0.0001624,53.2177,199.562,34.0596,346.7206,-0.0085697,-0.00658412,0.0,0 STARLINK-3160,1 49454U 21104AY  22011.91667824 -.00658412  00000-0 -85697-2 0  9998,2 49454  53.2177 199.5620 0001624  34.0596 346.7206 15.60292938  3674,6764.946999999999,92.29,387.911,385.714,0.0
49454.0,STARLINK-3160,PAYLOAD,2022-01-12 12:00:00,15.59475357,0.0001654,53.2177,196.7312,33.7671,24.6312,-0.0088025,-0.00655611,0.0,0 STARLINK-3160,1 49454U 21104AY  22012.50001157 -.00655611  00000-0 -88025-2 0  9991,2 49454  53.2177 196.7312 0001654  33.7671  24.6312 15.59475357 10713,6767.311,92.339,390.296,388.057,0.0
49454.0,STARLINK-3160,PAYLOAD,2022-01-12 14:00:01,15.59358863,0.0001789,53.2178,196.3279,36.5331,129.9559,-0.008847,-0.00655987,0.0,0 STARLINK-3160,1 49454U 21104AY  22012.58334491 -.00655987  00000-0 -88470-2 0  9999,2 49454  53.2178 196.3279 0001789  36.5331 129.9559 15.59358863  3700,6767.648,92.346,390.724,388.30300000000005,0.0
49454.0,STARLINK-3160,PAYLOAD,2022-01-13 12:00:00,15.58076846,0.0001759,53.2175,191.8902,35.5493,237.6254,-0.0092984,-0.00656555,0.0,0 STARLINK-3160,1 49454U 21104AY  22013.50001157 -.00656555  00000-0 -92984-2 0  9999,2 49454  53.2175 191.8902 0001759  35.5493 237.6254 15.58076846 10877,6771.36,92.422,394.416,392.034,0.0
49454.0,STARLINK-3160,PAYLOAD,2022-01-13 14:00:01,15.57961805,0.0001764999999999,53.2176,191.4879,29.5943,351.2502,-0.0093986,-0.00660425,0.0,0 STARLINK-3160,1 49454U 21104AY  22013.58334491 -.00660425  00000-0 -93986-2 0  9991,2 49454  53.2176 191.4879 0001765  29.5943 351.2502 15.57961805  3695,6771.694,92.428,394.754,392.36300000000006,0.0
49454.0,STARLINK-3160,PAYLOAD,2022-01-13 22:00:00,15.57489753,0.0001561,53.2174,189.8785,38.7192,52.4573,-0.0094286,-0.00651515,0.0,0 STARLINK-3160,1 49454U 21104AY  22013.91667824 -.00651515  00000-0 -94286-2 0  9991,2 49454  53.2174 189.8785 0001561  38.7192  52.4573 15.57489753  3675,6773.062,92.456,395.984,393.87,0.0
49454.0,STARLINK-3160,PAYLOAD,2022-01-14 12:00:00,15.5667626,0.0001864,53.2176,187.0596,33.1568,89.7496,-0.0097842,-0.00655456,0.0,0 STARLINK-3160,1 49454U 21104AY  22014.50001157 -.00655456  00000-0 -97842-2 0  9997,2 49454  53.2176 187.0596 0001864  33.1568  89.7496 15.56676260 11035,6775.420999999999,92.505,398.549,396.023,0.0
49454.0,STARLINK-3160,PAYLOAD,2022-01-14 14:00:01,15.56559753,0.000182,53.2176,186.658,36.8364,193.3197,-0.0098378,-0.00656115,0.0,0 STARLINK-3160,1 49454U 21104AY  22014.58334491 -.00656115  00000-0 -98378-2 0  9993,2 49454  53.2176 186.6580 0001820  36.8364 193.3197 15.56559753  3688,6775.759,92.512,398.858,396.391,0.0
49454.0,STARLINK-3160,PAYLOAD,2022-01-14 22:00:00,15.56091639,0.0001664,53.2176,185.0518,36.7258,262.0787,-0.0099652,-0.00653292,0.0,0 STARLINK-3160,1 49454U 21104AY  22014.91667824 -.00653292  00000-0 -99652-2 0  9998,2 49454  53.2176 185.0518 0001664  36.7258 262.0787 15.56091639  3705,6777.118,92.54,400.111,397.856,0.0
49454.0,STARLINK-3160,PAYLOAD,2022-01-15 12:00:00,15.55278116,0.0001778,53.2178,182.239,31.7856,295.8057,-0.010345,-0.00657643,0.0,0 STARLINK-3160,1 49454U 21104AY  22015.50001157 -.00657643  00000-0 -10345-1 0  9990,2 49454  53.2178 182.2390 0001778  31.7856 295.8057 15.55278116 11180,6779.481,92.588,402.552,400.141,0.0
49454.0,STARLINK-3160,PAYLOAD,2022-01-15 14:00:01,15.55161787,0.0001917,53.2177,181.8384,27.3269,47.1584,-0.010416,-0.00659204,0.0,0 STARLINK-3160,1 49454U 21104AY  22015.58335648 -.00659204  00000-0 -10416-1 0  9997,2 49454  53.2177 181.8384 0001917  27.3269  47.1584 15.55161787  3696,6779.819,92.595,402.984,400.385,0.0
49454.0,STARLINK-3160,PAYLOAD,2022-01-15 22:00:01,15.54689543,0.0001726,53.2173,180.2353,36.923,104.5305,-0.010428,-0.00649321,0.0,0 STARLINK-3160,1 49454U 21104AY  22015.91668981 -.00649321  00000-0 -10428-1 0  9995,2 49454  53.2173 180.2353 0001726  36.9230 104.5305 15.54689543  3696,6781.191999999999,92.623,404.228,401.887,0.0
49454.0,STARLINK-3160,PAYLOAD,2022-01-16 12:00:00,15.53876407,0.0001944,53.2175,177.4286,33.3847,133.8472,-0.010836,-0.00654458,0.0,0 STARLINK-3160,1 49454U 21104AY  22016.50001157 -.00654458  00000-0 -10836-1 0  9997,2 49454  53.2175 177.4286 0001944  33.3847 133.8472 15.53876407 11345,6783.558000000001,92.671,406.741,404.104,0.0
49454.0,STARLINK-3160,PAYLOAD,2022-01-16 14:00:01,15.53760764,0.0001841,53.2175,177.0287,34.493,239.1471,-0.010919,-0.00656493,0.0,0 STARLINK-3160,1 49454U 21104AY  22016.58334491 -.00656493  00000-0 -10919-1 0  9998,2 49454  53.2175 177.0287 0001841  34.4930 239.1471 15.53760764  3712,6783.894,92.678,407.008,404.51,0.0
49454.0,STARLINK-3160,PAYLOAD,2022-01-16 22:00:00,15.53293003,0.0001484,53.2173,175.429,41.067,297.8577,-0.011059,-0.00653795,0.0,0 STARLINK-3160,1 49454U 21104AY  22016.91667824 -.00653795  00000-0 -11059-1 0  9992,2 49454  53.2173 175.4290 0001484  41.0670 297.8577 15.53293003  3696,6785.255999999999,92.706,408.128,406.114,0.0
